{
  "type": "FeatureCollection",
  "features": [
    {
      "type": "Feature",
      "properties": {
        "norad_id": 44231,
        "name": "BEIDOU-2 G8 (C01)",
        "group": "gnss",
        "lat": 0.5678294582575496,
        "lon": 93.46750137145875,
        "alt_km": 35802.172649374865,
        "timestamp": "2025-12-20T14:38:02.213929+00:00",
        "meta_object_name": "BEIDOU-2 G8 (C01)",
        "meta_object_id": "2019-027A",
        "meta_epoch": "2025-12-19T12:14:23.449632",
        "meta_mean_motion": 1.00276563,
        "meta_eccentricity": 0.0008196,
        "meta_inclination": 1.6785,
        "meta_ra_of_asc_node": 74.7229,
        "meta_arg_of_pericenter": 258.5641,
        "meta_mean_anomaly": 83.1013,
        "meta_ephemeris_type": 0,
        "meta_classification_type": "U",
        "meta_norad_cat_id": 44231,
        "meta_element_set_no": 999,
        "meta_rev_at_epoch": 2427,
        "meta_bstar": 0,
        "meta_mean_motion_dot": -2.24e-06,
        "meta_mean_motion_ddot": 0,
        "tle_line1": "1 44231U 19027A   25353.50999363 -.00000224  00000+0  00000+0 0  9992",
        "tle_line2": "2 44231   1.6785  74.7229 0008196 258.5641  83.1013  1.00276563 24270"
      },
      "geometry": {
        "type": "Point",
        "coordinates": [
          93.46750137145875,
          0.5678294582575496
        ]
      }
    },
    {
      "type": "Feature",
      "properties": {
        "norad_id": 44299,
        "name": "COSMOS 2534 (758)",
        "group": "gnss",
        "lat": -51.13086621028221,
        "lon": 162.04620131754103,
        "alt_km": 19114.27185374311,
        "timestamp": "2025-12-20T14:38:02.213941+00:00",
        "meta_object_name": "COSMOS 2534 (758)",
        "meta_object_id": "2019-030A",
        "meta_epoch": "2025-12-18T18:30:09.690336",
        "meta_mean_motion": 2.13102412,
        "meta_eccentricity": 0.0008748,
        "meta_inclination": 64.3658,
        "meta_ra_of_asc_node": 198.6898,
        "meta_arg_of_pericenter": 284.2192,
        "meta_mean_anomaly": 45.4012,
        "meta_ephemeris_type": 0,
        "meta_classification_type": "U",
        "meta_norad_cat_id": 44299,
        "meta_element_set_no": 999,
        "meta_rev_at_epoch": 5107,
        "meta_bstar": 0,
        "meta_mean_motion_dot": 1.08e-06,
        "meta_mean_motion_ddot": 0,
        "tle_line1": "1 44299U 19030A   25352.77094549  .00000108  00000+0  00000+0 0  9990",
        "tle_line2": "2 44299  64.3658 198.6898 0008748 284.2192  45.4012  2.13102412 51071"
      },
      "geometry": {
        "type": "Point",
        "coordinates": [
          162.04620131754103,
          -51.13086621028221
        ]
      }
    },
    {
      "type": "Feature",
      "properties": {
        "norad_id": 44337,
        "name": "BEIDOU-3 IGSO-2 (C39)",
        "group": "gnss",
        "lat": -55.13766435606719,
        "lon": 67.57985297193886,
        "alt_km": 35729.083737861656,
        "timestamp": "2025-12-20T14:38:02.213952+00:00",
        "meta_object_name": "BEIDOU-3 IGSO-2 (C39)",
        "meta_object_id": "2019-035A",
        "meta_epoch": "2025-12-19T20:41:01.781088",
        "meta_mean_motion": 1.00269267,
        "meta_eccentricity": 0.0037549,
        "meta_inclination": 55.228,
        "meta_ra_of_asc_node": 160.4388,
        "meta_arg_of_pericenter": 202.2301,
        "meta_mean_anomaly": 155.7105,
        "meta_ephemeris_type": 0,
        "meta_classification_type": "U",
        "meta_norad_cat_id": 44337,
        "meta_element_set_no": 999,
        "meta_rev_at_epoch": 2386,
        "meta_bstar": 0,
        "meta_mean_motion_dot": -6.2e-07,
        "meta_mean_motion_ddot": 0,
        "tle_line1": "1 44337U 19035A   25353.86182617 -.00000062  00000+0  00000+0 0  9993",
        "tle_line2": "2 44337  55.2280 160.4388 0037549 202.2301 155.7105  1.00269267 23869"
      },
      "geometry": {
        "type": "Point",
        "coordinates": [
          67.57985297193886,
          -55.13766435606719
        ]
      }
    },
    {
      "type": "Feature",
      "properties": {
        "norad_id": 44506,
        "name": "GPS BIII-2  (PRN 18)",
        "group": "gnss",
        "lat": -29.412349105282033,
        "lon": -44.385068650727455,
        "alt_km": 20272.837235349503,
        "timestamp": "2025-12-20T14:38:02.213968+00:00",
        "meta_object_name": "GPS BIII-2  (PRN 18)",
        "meta_object_id": "2019-056A",
        "meta_epoch": "2025-12-20T05:10:31.696032",
        "meta_mean_motion": 2.00566646,
        "meta_eccentricity": 0.00577304,
        "meta_inclination": 55.7188,
        "meta_ra_of_asc_node": 338.2562,
        "meta_arg_of_pericenter": 198.5398,
        "meta_mean_anomaly": 199.8804,
        "meta_ephemeris_type": 0,
        "meta_classification_type": "U",
        "meta_norad_cat_id": 44506,
        "meta_element_set_no": 999,
        "meta_rev_at_epoch": 4648,
        "meta_bstar": 0,
        "meta_mean_motion_dot": -7.7e-07,
        "meta_mean_motion_ddot": 0,
        "tle_line1": "1 44506U 19056A   25354.21564463 -.00000077  00000+0  00000+0 0  9993",
        "tle_line2": "2 44506  55.7188 338.2562 0057730 198.5398 199.8804  2.00566646 46485"
      },
      "geometry": {
        "type": "Point",
        "coordinates": [
          -44.385068650727455,
          -29.412349105282033
        ]
      }
    },
    {
      "type": "Feature",
      "properties": {
        "norad_id": 44542,
        "name": "BEIDOU-3 M24 (C46)",
        "group": "gnss",
        "lat": 46.712188732802915,
        "lon": -40.79765809293615,
        "alt_km": 21522.870936704603,
        "timestamp": "2025-12-20T14:38:02.213979+00:00",
        "meta_object_name": "BEIDOU-3 M24 (C46)",
        "meta_object_id": "2019-061A",
        "meta_epoch": "2025-12-19T21:35:13.024320",
        "meta_mean_motion": 1.86229464,
        "meta_eccentricity": 0.00096018,
        "meta_inclination": 54.4003,
        "meta_ra_of_asc_node": 188.7744,
        "meta_arg_of_pericenter": 25.6941,
        "meta_mean_anomaly": 334.4131,
        "meta_ephemeris_type": 0,
        "meta_classification_type": "U",
        "meta_norad_cat_id": 44542,
        "meta_element_set_no": 999,
        "meta_rev_at_epoch": 4245,
        "meta_bstar": 0,
        "meta_mean_motion_dot": 1e-06,
        "meta_mean_motion_ddot": 0,
        "tle_line1": "1 44542U 19061A   25353.89945630  .00000100  00000+0  00000+0 0  9997",
        "tle_line2": "2 44542  54.4003 188.7744 0009601  25.6941 334.4131  1.86229464 42455"
      },
      "geometry": {
        "type": "Point",
        "coordinates": [
          -40.79765809293615,
          46.712188732802915
        ]
      }
    },
    {
      "type": "Feature",
      "properties": {
        "norad_id": 44543,
        "name": "BEIDOU-3 M23 (C45)",
        "group": "gnss",
        "lat": 23.195730891110863,
        "lon": -153.38551553418995,
        "alt_km": 21508.70876111094,
        "timestamp": "2025-12-20T14:38:02.213990+00:00",
        "meta_object_name": "BEIDOU-3 M23 (C45)",
        "meta_object_id": "2019-061B",
        "meta_epoch": "2025-12-19T04:54:38.810304",
        "meta_mean_motion": 1.86227724,
        "meta_eccentricity": 0.0006055,
        "meta_inclination": 54.3992,
        "meta_ra_of_asc_node": 188.7663,
        "meta_arg_of_pericenter": 24.9207,
        "meta_mean_anomaly": 142.055,
        "meta_ephemeris_type": 0,
        "meta_classification_type": "U",
        "meta_norad_cat_id": 44543,
        "meta_element_set_no": 999,
        "meta_rev_at_epoch": 4244,
        "meta_bstar": 0,
        "meta_mean_motion_dot": 1.04e-06,
        "meta_mean_motion_ddot": 0,
        "tle_line1": "1 44543U 19061B   25353.20461586  .00000104  00000+0  00000+0 0  9990",
        "tle_line2": "2 44543  54.3992 188.7663 0006055  24.9207 142.0550  1.86227724 42443"
      },
      "geometry": {
        "type": "Point",
        "coordinates": [
          -153.38551553418995,
          23.195730891110863
        ]
      }
    },
    {
      "type": "Feature",
      "properties": {
        "norad_id": 44624,
        "name": "EUTELSAT 5 WEST B (EGNOS/PRN 121)",
        "group": "gnss",
        "lat": -0.053790002125494195,
        "lon": -56.03406501626298,
        "alt_km": 35775.784414183625,
        "timestamp": "2025-12-20T14:38:02.214002+00:00",
        "meta_object_name": "EUTELSAT 5 WEST B (EGNOS/PRN 121)",
        "meta_object_id": "2019-067A",
        "meta_epoch": "2025-12-20T04:38:50.432928",
        "meta_mean_motion": 1.00271303,
        "meta_eccentricity": 0.00029972,
        "meta_inclination": 0.0677,
        "meta_ra_of_asc_node": 334.3737,
        "meta_arg_of_pericenter": 294.7797,
        "meta_mean_anomaly": 244.594,
        "meta_ephemeris_type": 0,
        "meta_classification_type": "U",
        "meta_norad_cat_id": 44624,
        "meta_element_set_no": 999,
        "meta_rev_at_epoch": 2264,
        "meta_bstar": 0,
        "meta_mean_motion_dot": -1.8e-07,
        "meta_mean_motion_ddot": 0,
        "tle_line1": "1 44624U 19067A   25354.19363927 -.00000018  00000+0  00000+0 0  9990",
        "tle_line2": "2 44624   0.0677 334.3737 0002997 294.7797 244.5940  1.00271303 22643"
      },
      "geometry": {
        "type": "Point",
        "coordinates": [
          -56.03406501626298,
          -0.053790002125494195
        ]
      }
    }
  ]
}